{
  "type": "FeatureCollection",
  "features": [
    {
      "type": "Feature",
      "properties": {
        "norad_id": 2807,
        "name": "OPS 7218 (TRANSIT 16)",
        "group": "nnss",
        "lat": 41.70935093999942,
        "lon": -5.938139360623238,
        "alt_km": 1056.175019230649,
        "timestamp": "2025-12-20T03:42:47.661531+00:00",
        "meta_object_name": "OPS 7218 (TRANSIT 16)",
        "meta_object_id": "1967-048A",
        "meta_epoch": "2025-12-19T10:34:01.367904",
        "meta_mean_motion": 13.50723636,
        "meta_eccentricity": 0.0022134,
        "meta_inclination": 89.6731,
        "meta_ra_of_asc_node": 353.7939,
        "meta_arg_of_pericenter": 96.2167,
        "meta_mean_anomaly": 73.8764,
        "meta_ephemeris_type": 0,
        "meta_classification_type": "U",
        "meta_norad_cat_id": 2807,
        "meta_element_set_no": 999,
        "meta_rev_at_epoch": 88366,
        "meta_bstar": 0.00015972,
        "meta_mean_motion_dot": 1.13e-06,
        "meta_mean_motion_ddot": 0,
        "tle_line1": "1 02807U 67048A   25353.44029361  .00000113  00000+0  15972-3 0  9990",
        "tle_line2": "2 02807  89.6731 353.7939 0022134  96.2167  73.8764 13.50723636883667"
      },
      "geometry": {
        "type": "Point",
        "coordinates": [
          -5.938139360623238,
          41.70935093999942
        ]
      }
    },
    {
      "type": "Feature",
      "properties": {
        "norad_id": 2965,
        "name": "OPS 4947 (TRANSIT 17)",
        "group": "nnss",
        "lat": 0.8733214715134379,
        "lon": -156.14136837262993,
        "alt_km": 1033.386695820559,
        "timestamp": "2025-12-20T03:42:47.661553+00:00",
        "meta_object_name": "OPS 4947 (TRANSIT 17)",
        "meta_object_id": "1967-092A",
        "meta_epoch": "2025-12-19T20:35:22.100352",
        "meta_mean_motion": 13.53455355,
        "meta_eccentricity": 0.0046673,
        "meta_inclination": 89.2488,
        "meta_ra_of_asc_node": 23.8927,
        "meta_arg_of_pericenter": 213.2944,
        "meta_mean_anomaly": 320.6179,
        "meta_ephemeris_type": 0,
        "meta_classification_type": "U",
        "meta_norad_cat_id": 2965,
        "meta_element_set_no": 999,
        "meta_rev_at_epoch": 87193,
        "meta_bstar": 0.0001984,
        "meta_mean_motion_dot": 1.45e-06,
        "meta_mean_motion_ddot": 0,
        "tle_line1": "1 02965U 67092A   25353.85789468  .00000145  00000+0  19840-3 0  9993",
        "tle_line2": "2 02965  89.2488  23.8927 0046673 213.2944 320.6179 13.53455355871930"
      },
      "geometry": {
        "type": "Point",
        "coordinates": [
          -156.14136837262993,
          0.8733214715134379
        ]
      }
    },
    {
      "type": "Feature",
      "properties": {
        "norad_id": 3133,
        "name": "OPS 7034 (TRANSIT 18)",
        "group": "nnss",
        "lat": -81.22516666352777,
        "lon": -86.15659501332989,
        "alt_km": 1110.1693313512824,
        "timestamp": "2025-12-20T03:42:47.661567+00:00",
        "meta_object_name": "OPS 7034 (TRANSIT 18)",
        "meta_object_id": "1968-012A",
        "meta_epoch": "2025-12-19T12:58:57.137376",
        "meta_mean_motion": 13.51567181,
        "meta_eccentricity": 0.007451,
        "meta_inclination": 90.0283,
        "meta_ra_of_asc_node": 273.6582,
        "meta_arg_of_pericenter": 149.5169,
        "meta_mean_anomaly": 23.9801,
        "meta_ephemeris_type": 0,
        "meta_classification_type": "U",
        "meta_norad_cat_id": 3133,
        "meta_element_set_no": 999,
        "meta_rev_at_epoch": 57010,
        "meta_bstar": 0.00014664,
        "meta_mean_motion_dot": 1.07e-06,
        "meta_mean_motion_ddot": 0,
        "tle_line1": "1 03133U 68012A   25353.54093909  .00000107  00000+0  14664-3 0  9995",
        "tle_line2": "2 03133  90.0283 273.6582 0074510 149.5169  23.9801 13.51567181570103"
      },
      "geometry": {
        "type": "Point",
        "coordinates": [
          -86.15659501332989,
          -81.22516666352777
        ]
      }
    },
    {
      "type": "Feature",
      "properties": {
        "norad_id": 4507,
        "name": "NNSS 19 (TRANSIT 19)",
        "group": "nnss",
        "lat": -62.02153019755691,
        "lon": 54.529348859435736,
        "alt_km": 964.0584868068354,
        "timestamp": "2025-12-20T03:42:47.661579+00:00",
        "meta_object_name": "NNSS 19 (TRANSIT 19)",
        "meta_object_id": "1970-067A",
        "meta_epoch": "2025-12-19T15:50:32.714304",
        "meta_mean_motion": 13.51316405,
        "meta_eccentricity": 0.0170265,
        "meta_inclination": 90.0051,
        "meta_ra_of_asc_node": 234.5387,
        "meta_arg_of_pericenter": 273.1305,
        "meta_mean_anomaly": 85.0378,
        "meta_ephemeris_type": 0,
        "meta_classification_type": "U",
        "meta_norad_cat_id": 4507,
        "meta_element_set_no": 999,
        "meta_rev_at_epoch": 72315,
        "meta_bstar": 0.00012385,
        "meta_mean_motion_dot": 9.6e-07,
        "meta_mean_motion_ddot": 0,
        "tle_line1": "1 04507U 70067A   25353.66010086  .00000096  00000+0  12385-3 0  9997",
        "tle_line2": "2 04507  90.0051 234.5387 0170265 273.1305  85.0378 13.51316405723155"
      },
      "geometry": {
        "type": "Point",
        "coordinates": [
          54.529348859435736,
          -62.02153019755691
        ]
      }
    },
    {
      "type": "Feature",
      "properties": {
        "norad_id": 6909,
        "name": "NNSS 20 (TRANSIT 20)",
        "group": "nnss",
        "lat": 46.26550169954027,
        "lon": 74.79263524109058,
        "alt_km": 963.4098769809252,
        "timestamp": "2025-12-20T03:42:47.661590+00:00",
        "meta_object_name": "NNSS 20 (TRANSIT 20)",
        "meta_object_id": "1973-081A",
        "meta_epoch": "2025-12-19T11:19:12.247392",
        "meta_mean_motion": 13.71437552,
        "meta_eccentricity": 0.0156459,
        "meta_inclination": 89.8562,
        "meta_ra_of_asc_node": 254.9533,
        "meta_arg_of_pericenter": 58.3821,
        "meta_mean_anomaly": 303.2502,
        "meta_ephemeris_type": 0,
        "meta_classification_type": "U",
        "meta_norad_cat_id": 6909,
        "meta_element_set_no": 999,
        "meta_rev_at_epoch": 80453,
        "meta_bstar": 0.00023103,
        "meta_mean_motion_dot": 2.38e-06,
        "meta_mean_motion_ddot": 0,
        "tle_line1": "1 06909U 73081A   25353.47166953  .00000238  00000+0  23103-3 0  9996",
        "tle_line2": "2 06909  89.8562 254.9533 0156459  58.3821 303.2502 13.71437552804535"
      },
      "geometry": {
        "type": "Point",
        "coordinates": [
          74.79263524109058,
          46.26550169954027
        ]
      }
    },
    {
      "type": "Feature",
      "properties": {
        "norad_id": 10457,
        "name": "TRANSAT",
        "group": "nnss",
        "lat": -4.900116586724338,
        "lon": -101.63525775564561,
        "alt_km": 1061.0777930823215,
        "timestamp": "2025-12-20T03:42:47.661614+00:00",
        "meta_object_name": "TRANSAT",
        "meta_object_id": "1977-106A",
        "meta_epoch": "2025-12-19T20:17:38.575968",
        "meta_mean_motion": 13.48944637,
        "meta_eccentricity": 0.002607,
        "meta_inclination": 89.6481,
        "meta_ra_of_asc_node": 78.3455,
        "meta_arg_of_pericenter": 169.1194,
        "meta_mean_anomaly": 315.2603,
        "meta_ephemeris_type": 0,
        "meta_classification_type": "U",
        "meta_norad_cat_id": 10457,
        "meta_element_set_no": 999,
        "meta_rev_at_epoch": 36839,
        "meta_bstar": 0.00011502,
        "meta_mean_motion_dot": 8.2e-07,
        "meta_mean_motion_ddot": 0,
        "tle_line1": "1 10457U 77106A   25353.84558537  .00000082  00000+0  11502-3 0  9992",
        "tle_line2": "2 10457  89.6481  78.3455 0026070 169.1194 315.2603 13.48944637368391"
      },
      "geometry": {
        "type": "Point",
        "coordinates": [
          -101.63525775564561,
          -4.900116586724338
        ]
      }
    },
    {
      "type": "Feature",
      "properties": {
        "norad_id": 12458,
        "name": "NOVA 1",
        "group": "nnss",
        "lat": 57.779007990118785,
        "lon": -88.9532008588463,
        "alt_km": 1157.0776066749322,
        "timestamp": "2025-12-20T03:42:47.661627+00:00",
        "meta_object_name": "NOVA 1",
        "meta_object_id": "1981-044A",
        "meta_epoch": "2025-12-19T20:25:06.503808",
        "meta_mean_motion": 13.23279025,
        "meta_eccentricity": 0.0015871,
        "meta_inclination": 89.8528,
        "meta_ra_of_asc_node": 91.2848,
        "meta_arg_of_pericenter": 86.5334,
        "meta_mean_anomaly": 28.4106,
        "meta_ephemeris_type": 0,
        "meta_classification_type": "U",
        "meta_norad_cat_id": 12458,
        "meta_element_set_no": 999,
        "meta_rev_at_epoch": 15280,
        "meta_bstar": 9.2416e-05,
        "meta_mean_motion_dot": 4.8e-07,
        "meta_mean_motion_ddot": 0,
        "tle_line1": "1 12458U 81044A   25353.85076972  .00000048  00000+0  92416-4 0  9996",
        "tle_line2": "2 12458  89.8528  91.2848 0015871  86.5334  28.4106 13.23279025152806"
      },
      "geometry": {
        "type": "Point",
        "coordinates": [
          -88.9532008588463,
          57.779007990118785
        ]
      }
    }
  ]
}